HERMES-3                
1 63835U 25052BR  26068.93751242  .00020316  00000+0  69958-3 0  9995
2 63835  97.3987 324.6131 0007993 112.9583 247.2502 15.30039785 54863
STARLINK-36441          
1 67469U 26008AA  26068.59174816  .00023438  00000+0  85882-3 0  9994
2 67469  42.9987 206.0758 0001634 278.6295  81.4372 15.27568643  9555
